{"type": "FeatureCollection","features": [{"type": "Feature", "geometry": {"type":"Point","coordinates":[117.2069353,-0.4456448]}, "properties": {"osm_id": 4067938418, "osm_type": "nodes", "name": "Pemadam Kebakaran KRUS", "amenity": "fire_station"}},{"type": "Feature", "geometry": {"type":"Polygon","coordinates":[[[117.1564528,-0.4829217],[117.1565868,-0.4830069],[117.1566491,-0.4829089],[117.1565152,-0.4828237],[117.1564528,-0.4829217]]]}, "properties": {"osm_id": 359098527, "osm_type": "ways_poly", "name": "Pemadam Kebakaran Bandara Temindung", "amenity": "fire_station"}},{"type": "Feature", "geometry": {"type":"Polygon","coordinates":[[[117.2516996,-0.3756233],[117.2518186,-0.3757464],[117.2520185,-0.3755479],[117.2521538,-0.3756832],[117.2522775,-0.3755594],[117.2520188,-0.375304],[117.2516996,-0.3756233]]]}, "properties": {"osm_id": 572904695, "osm_type": "ways_poly", "name": "Stasiun Pemadam Kebakaran Bandara", "amenity": "fire_station"}},{"type": "Feature", "geometry": {"type":"Polygon","coordinates":[[[117.1531552,-0.4513198],[117.153172,-0.4515202],[117.1535111,-0.4514919],[117.1534944,-0.4512915],[117.1531552,-0.4513198]]]}, "properties": {"osm_id": 357021213, "osm_type": "ways_poly", "name": "Pemadam Kebakaran Sempaja", "amenity": "fire_station"}},{"type": "Feature", "geometry": {"type":"Polygon","coordinates":[[[117.2098099,-0.526423],[117.2100944,-0.5264927],[117.2101288,-0.526352],[117.2098443,-0.5262824],[117.2098099,-0.526423]]]}, "properties": {"osm_id": 356213406, "osm_type": "ways_poly", "name": "Pemadam Kebakaran", "amenity": "fire_station"}},{"type": "Feature", "geometry": {"type":"Polygon","coordinates":[[[117.1803544,-0.5677913],[117.1804641,-0.5678117],[117.180495,-0.5676454],[117.1803853,-0.567625],[117.1803544,-0.5677913]]]}, "properties": {"osm_id": 514070259, "osm_type": "ways_poly", "name": "Dinas Pemadam Kebakaran Posko VI", "amenity": "fire_station"}},{"type": "Feature", "geometry": {"type":"Polygon","coordinates":[[[117.1176635,-0.5069532],[117.1177296,-0.5070295],[117.1178724,-0.5069058],[117.1178064,-0.5068295],[117.1176635,-0.5069532]]]}, "properties": {"osm_id": 440800800, "osm_type": "ways_poly", "name": "Relawan Family 32 ( BALAKARCANA SAMARINDA)", "amenity": "fire_station"}},{"type": "Feature", "geometry": {"type":"Polygon","coordinates":[[[117.1136406,-0.5265927],[117.1136944,-0.5266341],[117.1137667,-0.526539],[117.113713,-0.5265018],[117.1136406,-0.5265927]]]}, "properties": {"osm_id": 358725683, "osm_type": "ways_poly", "name": "Kantor Pemadam Kebakaran Sungai Kunjang", "amenity": "fire_station"}},{"type": "Feature", "geometry": {"type":"Polygon","coordinates":[[[117.1384673,-0.5105745],[117.1385599,-0.5107364],[117.1388856,-0.5105499],[117.1388073,-0.5103892],[117.1384673,-0.5105745]]]}, "properties": {"osm_id": 357299396, "osm_type": "ways_poly", "name": "POSKO 5 (Pemadam Kebakaran) BPBD Kota Samarinda", "amenity": "fire_station"}},{"type": "Feature", "geometry": {"type":"Polygon","coordinates":[[[117.1484574,-0.4589445],[117.1485158,-0.4589714],[117.1485269,-0.458943],[117.1485537,-0.4589524],[117.1485758,-0.4589051],[117.1485521,-0.4588988],[117.1485632,-0.4588388],[117.1485395,-0.4588356],[117.1484827,-0.4588262],[117.1484574,-0.4589445]]]}, "properties": {"osm_id": 355644115, "osm_type": "ways_poly", "name": "Balakarcana", "amenity": "fire_station"}}]}