{"type": "FeatureCollection","features": [{"type": "Feature", "geometry": {"type":"Point","coordinates":[117.0863751,-0.5575134]}, "properties": {"osm_id": 3228014430, "osm_type": "nodes", "status": null, "opening_hours": null, "access": null, "toilets_disposal": null, "toilets_handwashing": null, "operator": null, "operator_type": null, "health_facility_bed": null, "staff_count_nurses": null, "health_facility_level": null, "medical_system_western": null, "staff_count_doctors": null, "health_facility_type": null}},{"type": "Feature", "geometry": {"type":"Point","coordinates":[117.1415229,-0.4845036]}, "properties": {"osm_id": 9888970377, "osm_type": "nodes", "status": null, "opening_hours": null, "access": null, "toilets_disposal": null, "toilets_handwashing": null, "operator": null, "operator_type": null, "health_facility_bed": null, "staff_count_nurses": null, "health_facility_level": null, "medical_system_western": null, "staff_count_doctors": null, "health_facility_type": null}},{"type": "Feature", "geometry": {"type":"Point","coordinates":[117.1487832,-0.4971099]}, "properties": {"osm_id": 3092168959, "osm_type": "nodes", "status": null, "opening_hours": null, "access": null, "toilets_disposal": null, "toilets_handwashing": null, "operator": null, "operator_type": null, "health_facility_bed": null, "staff_count_nurses": null, "health_facility_level": null, "medical_system_western": null, "staff_count_doctors": null, "health_facility_type": null}},{"type": "Feature", "geometry": {"type":"Point","coordinates":[117.1471884,-0.4959625]}, "properties": {"osm_id": 1612860144, "osm_type": "nodes", "status": null, "opening_hours": null, "access": null, "toilets_disposal": null, "toilets_handwashing": null, "operator": null, "operator_type": null, "health_facility_bed": null, "staff_count_nurses": null, "health_facility_level": null, "medical_system_western": null, "staff_count_doctors": null, "health_facility_type": null}},{"type": "Feature", "geometry": {"type":"Point","coordinates":[117.1438036,-0.4840794]}, "properties": {"osm_id": 3311493680, "osm_type": "nodes", "status": null, "opening_hours": null, "access": null, "toilets_disposal": null, "toilets_handwashing": null, "operator": null, "operator_type": null, "health_facility_bed": null, "staff_count_nurses": null, "health_facility_level": null, "medical_system_western": null, "staff_count_doctors": null, "health_facility_type": null}},{"type": "Feature", "geometry": {"type":"Point","coordinates":[117.1435582,-0.4793201]}, "properties": {"osm_id": 3306920107, "osm_type": "nodes", "status": null, "opening_hours": null, "access": null, "toilets_disposal": null, "toilets_handwashing": null, "operator": null, "operator_type": null, "health_facility_bed": null, "staff_count_nurses": null, "health_facility_level": null, "medical_system_western": null, "staff_count_doctors": null, "health_facility_type": null}},{"type": "Feature", "geometry": {"type":"Point","coordinates":[117.0565603,-0.3920212]}, "properties": {"osm_id": 4474516030, "osm_type": "nodes", "status": null, "opening_hours": null, "access": null, "toilets_disposal": null, "toilets_handwashing": null, "operator": null, "operator_type": null, "health_facility_bed": null, "staff_count_nurses": null, "health_facility_level": null, "medical_system_western": null, "staff_count_doctors": null, "health_facility_type": null}},{"type": "Feature", "geometry": {"type":"Point","coordinates":[117.1829318,-0.4813691]}, "properties": {"osm_id": 4438503589, "osm_type": "nodes", "status": null, "opening_hours": null, "access": null, "toilets_disposal": null, "toilets_handwashing": null, "operator": null, "operator_type": null, "health_facility_bed": null, "staff_count_nurses": null, "health_facility_level": null, "medical_system_western": null, "staff_count_doctors": null, "health_facility_type": null}},{"type": "Feature", "geometry": {"type":"Point","coordinates":[117.1648653,-0.4898895]}, "properties": {"osm_id": 4637315390, "osm_type": "nodes", "status": null, "opening_hours": null, "access": null, "toilets_disposal": null, "toilets_handwashing": null, "operator": null, "operator_type": null, "health_facility_bed": null, "staff_count_nurses": null, "health_facility_level": null, "medical_system_western": null, "staff_count_doctors": null, "health_facility_type": null}},{"type": "Feature", "geometry": {"type":"Point","coordinates":[117.1428525,-0.5015986]}, "properties": {"osm_id": 1612860145, "osm_type": "nodes", "status": null, "opening_hours": null, "access": null, "toilets_disposal": null, "toilets_handwashing": null, "operator": null, "operator_type": null, "health_facility_bed": null, "staff_count_nurses": null, "health_facility_level": null, "medical_system_western": null, "staff_count_doctors": null, "health_facility_type": null}},{"type": "Feature", "geometry": {"type":"Point","coordinates":[117.1415769,-0.4824172]}, "properties": {"osm_id": 3311493679, "osm_type": "nodes", "status": null, "opening_hours": null, "access": null, "toilets_disposal": null, "toilets_handwashing": null, "operator": null, "operator_type": null, "health_facility_bed": null, "staff_count_nurses": null, "health_facility_level": null, "medical_system_western": null, "staff_count_doctors": null, "health_facility_type": null}},{"type": "Feature", "geometry": {"type":"Point","coordinates":[117.1421515,-0.5011442]}, "properties": {"osm_id": 2793976085, "osm_type": "nodes", "status": null, "opening_hours": null, "access": null, "toilets_disposal": null, "toilets_handwashing": null, "operator": null, "operator_type": null, "health_facility_bed": null, "staff_count_nurses": null, "health_facility_level": null, "medical_system_western": null, "staff_count_doctors": null, "health_facility_type": null}},{"type": "Feature", "geometry": {"type":"Point","coordinates":[117.15037,-0.4927369]}, "properties": {"osm_id": 1612860125, "osm_type": "nodes", "status": null, "opening_hours": null, "access": null, "toilets_disposal": null, "toilets_handwashing": null, "operator": null, "operator_type": null, "health_facility_bed": null, "staff_count_nurses": null, "health_facility_level": null, "medical_system_western": null, "staff_count_doctors": null, "health_facility_type": null}},{"type": "Feature", "geometry": {"type":"Point","coordinates":[117.1251966,-0.4979537]}, "properties": {"osm_id": 8587068498, "osm_type": "nodes", "status": null, "opening_hours": null, "access": null, "toilets_disposal": null, "toilets_handwashing": null, "operator": null, "operator_type": null, "health_facility_bed": null, "staff_count_nurses": null, "health_facility_level": null, "medical_system_western": null, "staff_count_doctors": null, "health_facility_type": null}},{"type": "Feature", "geometry": {"type":"Point","coordinates":[117.1234072,-0.477218]}, "properties": {"osm_id": 9888863259, "osm_type": "nodes", "status": null, "opening_hours": null, "access": null, "toilets_disposal": null, "toilets_handwashing": null, "operator": null, "operator_type": null, "health_facility_bed": null, "staff_count_nurses": null, "health_facility_level": null, "medical_system_western": null, "staff_count_doctors": null, "health_facility_type": null}},{"type": "Feature", "geometry": {"type":"Point","coordinates":[117.1310665,-0.4716683]}, "properties": {"osm_id": 9887220475, "osm_type": "nodes", "status": null, "opening_hours": null, "access": null, "toilets_disposal": null, "toilets_handwashing": null, "operator": null, "operator_type": null, "health_facility_bed": null, "staff_count_nurses": null, "health_facility_level": null, "medical_system_western": null, "staff_count_doctors": null, "health_facility_type": null}},{"type": "Feature", "geometry": {"type":"Point","coordinates":[117.152899,-0.4906857]}, "properties": {"osm_id": 4659113589, "osm_type": "nodes", "status": null, "opening_hours": null, "access": null, "toilets_disposal": null, "toilets_handwashing": null, "operator": null, "operator_type": null, "health_facility_bed": null, "staff_count_nurses": null, "health_facility_level": null, "medical_system_western": null, "staff_count_doctors": null, "health_facility_type": null}},{"type": "Feature", "geometry": {"type":"Polygon","coordinates":[[[117.1589383,-0.5062578],[117.159164,-0.5071432],[117.159329,-0.5071877],[117.1596109,-0.5072752],[117.1596052,-0.507293],[117.1597964,-0.5073513],[117.1598685,-0.5073576],[117.1601501,-0.5065625],[117.1589749,-0.5061926],[117.1589383,-0.5062578]]]}, "properties": {"osm_id": 316793614, "osm_type": "ways_poly", "status": null, "opening_hours": null, "access": null, "toilets_disposal": null, "toilets_handwashing": null, "operator": "Yayasan Rumah Sakit Islam", "operator_type": "private", "health_facility_bed": null, "staff_count_nurses": null, "health_facility_level": null, "medical_system_western": null, "staff_count_doctors": null, "health_facility_type": null}},{"type": "Feature", "geometry": {"type":"Polygon","coordinates":[[[117.2095452,-0.5110371],[117.2095673,-0.5110598],[117.2096004,-0.5110276],[117.2095783,-0.5110049],[117.2095452,-0.5110371]]]}, "properties": {"osm_id": 359680890, "osm_type": "ways_poly", "status": null, "opening_hours": null, "access": null, "toilets_disposal": null, "toilets_handwashing": null, "operator": null, "operator_type": null, "health_facility_bed": null, "staff_count_nurses": null, "health_facility_level": null, "medical_system_western": null, "staff_count_doctors": null, "health_facility_type": null}},{"type": "Feature", "geometry": {"type":"Polygon","coordinates":[[[117.1599006,-0.4764324],[117.159983,-0.4765796],[117.1601322,-0.4764944],[117.1600506,-0.4763501],[117.1599006,-0.4764324]]]}, "properties": {"osm_id": 358495070, "osm_type": "ways_poly", "status": null, "opening_hours": null, "access": null, "toilets_disposal": null, "toilets_handwashing": null, "operator": null, "operator_type": null, "health_facility_bed": null, "staff_count_nurses": null, "health_facility_level": null, "medical_system_western": null, "staff_count_doctors": null, "health_facility_type": null}},{"type": "Feature", "geometry": {"type":"Polygon","coordinates":[[[117.1510687,-0.4938724],[117.151203,-0.4939489],[117.1512362,-0.4938907],[117.1511019,-0.4938142],[117.1510687,-0.4938724]]]}, "properties": {"osm_id": 363331677, "osm_type": "ways_poly", "status": null, "opening_hours": null, "access": null, "toilets_disposal": null, "toilets_handwashing": null, "operator": null, "operator_type": null, "health_facility_bed": null, "staff_count_nurses": null, "health_facility_level": null, "medical_system_western": null, "staff_count_doctors": null, "health_facility_type": null}},{"type": "Feature", "geometry": {"type":"Polygon","coordinates":[[[117.0671684,-0.3118175],[117.0673078,-0.3118198],[117.0673086,-0.3117703],[117.0672711,-0.3117697],[117.0672713,-0.3117543],[117.0673088,-0.3117549],[117.0673097,-0.3116981],[117.0672186,-0.3116967],[117.067218,-0.3117342],[117.0671698,-0.3117334],[117.0671684,-0.3118175]]]}, "properties": {"osm_id": 418866222, "osm_type": "ways_poly", "status": null, "opening_hours": null, "access": null, "toilets_disposal": null, "toilets_handwashing": null, "operator": null, "operator_type": null, "health_facility_bed": null, "staff_count_nurses": null, "health_facility_level": null, "medical_system_western": null, "staff_count_doctors": null, "health_facility_type": null}},{"type": "Feature", "geometry": {"type":"Polygon","coordinates":[[[117.1242085,-0.4723978],[117.1242218,-0.4728345],[117.1243529,-0.4729853],[117.1244508,-0.4729998],[117.1247378,-0.4729701],[117.1247585,-0.4729875],[117.124917,-0.4729204],[117.1248919,-0.4725562],[117.1248629,-0.4716593],[117.1243043,-0.4716694],[117.124324,-0.472238],[117.1242249,-0.4723242],[117.1242085,-0.4723978]]]}, "properties": {"osm_id": 326320746, "osm_type": "ways_poly", "status": null, "opening_hours": null, "access": null, "toilets_disposal": null, "toilets_handwashing": null, "operator": null, "operator_type": "private", "health_facility_bed": null, "staff_count_nurses": null, "health_facility_level": null, "medical_system_western": null, "staff_count_doctors": null, "health_facility_type": null}},{"type": "Feature", "geometry": {"type":"Polygon","coordinates":[[[117.1185349,-0.5014381],[117.1187493,-0.5015312],[117.1188196,-0.5013695],[117.1186052,-0.5012764],[117.1185349,-0.5014381]]]}, "properties": {"osm_id": 355665695, "osm_type": "ways_poly", "status": null, "opening_hours": null, "access": null, "toilets_disposal": null, "toilets_handwashing": null, "operator": null, "operator_type": null, "health_facility_bed": null, "staff_count_nurses": null, "health_facility_level": null, "medical_system_western": null, "staff_count_doctors": null, "health_facility_type": null}},{"type": "Feature", "geometry": {"type":"Polygon","coordinates":[[[117.1264132,-0.4908999],[117.1264498,-0.4909858],[117.1265253,-0.4909536],[117.1264887,-0.4908677],[117.1264132,-0.4908999]]]}, "properties": {"osm_id": 576731873, "osm_type": "ways_poly", "status": null, "opening_hours": null, "access": null, "toilets_disposal": null, "toilets_handwashing": null, "operator": null, "operator_type": null, "health_facility_bed": null, "staff_count_nurses": null, "health_facility_level": null, "medical_system_western": null, "staff_count_doctors": null, "health_facility_type": null}},{"type": "Feature", "geometry": {"type":"Polygon","coordinates":[[[117.1715315,-0.525871],[117.1715862,-0.5258955],[117.171617,-0.5258269],[117.1715623,-0.5258024],[117.1715315,-0.525871]]]}, "properties": {"osm_id": 359675943, "osm_type": "ways_poly", "status": null, "opening_hours": null, "access": null, "toilets_disposal": null, "toilets_handwashing": null, "operator": null, "operator_type": null, "health_facility_bed": null, "staff_count_nurses": null, "health_facility_level": null, "medical_system_western": null, "staff_count_doctors": null, "health_facility_type": null}},{"type": "Feature", "geometry": {"type":"Polygon","coordinates":[[[117.1096362,-0.5582761],[117.1096563,-0.5595515],[117.1099661,-0.5595447],[117.1102518,-0.5598425],[117.1103564,-0.5597861],[117.1107413,-0.5592202],[117.1110148,-0.55918],[117.111267,-0.5593127],[117.1115003,-0.5588353],[117.1112992,-0.5587348],[117.1111811,-0.5586275],[117.1111168,-0.5584692],[117.1109035,-0.5574997],[117.1105307,-0.5576753],[117.1100586,-0.5576217],[117.1100332,-0.5577397],[117.1100171,-0.5581903],[117.1096362,-0.5582761]]]}, "properties": {"osm_id": 412314339, "osm_type": "ways_poly", "status": null, "opening_hours": null, "access": null, "toilets_disposal": null, "toilets_handwashing": null, "operator": null, "operator_type": "government", "health_facility_bed": null, "staff_count_nurses": null, "health_facility_level": null, "medical_system_western": null, "staff_count_doctors": null, "health_facility_type": null}},{"type": "Feature", "geometry": {"type":"Polygon","coordinates":[[[117.1278419,-0.4720608],[117.1279599,-0.4723263],[117.1280893,-0.4722688],[117.1279713,-0.4720032],[117.1278419,-0.4720608]]]}, "properties": {"osm_id": 574258654, "osm_type": "ways_poly", "status": null, "opening_hours": null, "access": null, "toilets_disposal": null, "toilets_handwashing": null, "operator": null, "operator_type": null, "health_facility_bed": null, "staff_count_nurses": null, "health_facility_level": null, "medical_system_western": null, "staff_count_doctors": null, "health_facility_type": null}},{"type": "Feature", "geometry": {"type":"Polygon","coordinates":[[[117.2329017,-0.6578622],[117.2330791,-0.6579813],[117.2333241,-0.6576163],[117.2332049,-0.6575363],[117.2330483,-0.6577696],[117.2329901,-0.6577305],[117.2329017,-0.6578622]]]}, "properties": {"osm_id": 1462472023, "osm_type": "ways_poly", "status": null, "opening_hours": null, "access": null, "toilets_disposal": null, "toilets_handwashing": null, "operator": null, "operator_type": null, "health_facility_bed": null, "staff_count_nurses": null, "health_facility_level": null, "medical_system_western": null, "staff_count_doctors": null, "health_facility_type": null}},{"type": "Feature", "geometry": {"type":"Polygon","coordinates":[[[117.1924927,-0.4669448],[117.1924995,-0.4670092],[117.1925662,-0.4670022],[117.1925594,-0.4669378],[117.1924927,-0.4669448]]]}, "properties": {"osm_id": 355650652, "osm_type": "ways_poly", "status": null, "opening_hours": null, "access": null, "toilets_disposal": null, "toilets_handwashing": null, "operator": "Posyandu", "operator_type": "private", "health_facility_bed": null, "staff_count_nurses": null, "health_facility_level": null, "medical_system_western": null, "staff_count_doctors": null, "health_facility_type": null}},{"type": "Feature", "geometry": {"type":"Polygon","coordinates":[[[117.1926689,-0.410917],[117.1926694,-0.4109705],[117.1927076,-0.4109701],[117.1927071,-0.4109166],[117.1926689,-0.410917]]]}, "properties": {"osm_id": 358726910, "osm_type": "ways_poly", "status": null, "opening_hours": null, "access": null, "toilets_disposal": null, "toilets_handwashing": null, "operator": "Posyandu", "operator_type": "private", "health_facility_bed": null, "staff_count_nurses": null, "health_facility_level": null, "medical_system_western": null, "staff_count_doctors": null, "health_facility_type": null}},{"type": "Feature", "geometry": {"type":"Polygon","coordinates":[[[117.1968593,-0.4180102],[117.196954,-0.4180125],[117.1969572,-0.4178796],[117.1968625,-0.4178773],[117.1968593,-0.4180102]]]}, "properties": {"osm_id": 358726915, "osm_type": "ways_poly", "status": null, "opening_hours": null, "access": null, "toilets_disposal": null, "toilets_handwashing": null, "operator": "Ministry of Health", "operator_type": "government", "health_facility_bed": null, "staff_count_nurses": null, "health_facility_level": null, "medical_system_western": null, "staff_count_doctors": null, "health_facility_type": null}},{"type": "Feature", "geometry": {"type":"Polygon","coordinates":[[[117.1626095,-0.4272823],[117.1627337,-0.4273431],[117.1628123,-0.4271824],[117.1626881,-0.4271216],[117.1626095,-0.4272823]]]}, "properties": {"osm_id": 357650799, "osm_type": "ways_poly", "status": null, "opening_hours": null, "access": null, "toilets_disposal": null, "toilets_handwashing": null, "operator": null, "operator_type": null, "health_facility_bed": null, "staff_count_nurses": null, "health_facility_level": null, "medical_system_western": null, "staff_count_doctors": null, "health_facility_type": null}},{"type": "Feature", "geometry": {"type":"Polygon","coordinates":[[[117.1624456,-0.4273624],[117.1625336,-0.4274055],[117.1626056,-0.4272582],[117.1625176,-0.4272152],[117.1624456,-0.4273624]]]}, "properties": {"osm_id": 357650805, "osm_type": "ways_poly", "status": null, "opening_hours": null, "access": null, "toilets_disposal": null, "toilets_handwashing": null, "operator": null, "operator_type": null, "health_facility_bed": null, "staff_count_nurses": null, "health_facility_level": null, "medical_system_western": null, "staff_count_doctors": null, "health_facility_type": null}},{"type": "Feature", "geometry": {"type":"Polygon","coordinates":[[[117.1625676,-0.4274012],[117.1627536,-0.4274922],[117.1628003,-0.4273968],[117.1626142,-0.4273058],[117.1625676,-0.4274012]]]}, "properties": {"osm_id": 357650810, "osm_type": "ways_poly", "status": null, "opening_hours": null, "access": null, "toilets_disposal": null, "toilets_handwashing": null, "operator": null, "operator_type": null, "health_facility_bed": null, "staff_count_nurses": null, "health_facility_level": null, "medical_system_western": null, "staff_count_doctors": null, "health_facility_type": null}},{"type": "Feature", "geometry": {"type":"Polygon","coordinates":[[[117.1625967,-0.4270607],[117.1626643,-0.4270938],[117.1627155,-0.4269892],[117.1626479,-0.4269561],[117.1625967,-0.4270607]]]}, "properties": {"osm_id": 357650813, "osm_type": "ways_poly", "status": null, "opening_hours": null, "access": null, "toilets_disposal": null, "toilets_handwashing": null, "operator": null, "operator_type": null, "health_facility_bed": null, "staff_count_nurses": null, "health_facility_level": null, "medical_system_western": null, "staff_count_doctors": null, "health_facility_type": null}},{"type": "Feature", "geometry": {"type":"Polygon","coordinates":[[[117.2113309,-0.4810482],[117.2114839,-0.4811143],[117.211527,-0.4810147],[117.211374,-0.4809486],[117.2113309,-0.4810482]]]}, "properties": {"osm_id": 361835834, "osm_type": "ways_poly", "status": null, "opening_hours": null, "access": null, "toilets_disposal": null, "toilets_handwashing": null, "operator": null, "operator_type": null, "health_facility_bed": null, "staff_count_nurses": null, "health_facility_level": null, "medical_system_western": null, "staff_count_doctors": null, "health_facility_type": null}},{"type": "Feature", "geometry": {"type":"Polygon","coordinates":[[[117.1538276,-0.4816268],[117.1538761,-0.4817066],[117.154035,-0.4816102],[117.1539865,-0.4815303],[117.1538276,-0.4816268]]]}, "properties": {"osm_id": 361866527, "osm_type": "ways_poly", "status": null, "opening_hours": null, "access": null, "toilets_disposal": null, "toilets_handwashing": null, "operator": null, "operator_type": null, "health_facility_bed": null, "staff_count_nurses": null, "health_facility_level": null, "medical_system_western": null, "staff_count_doctors": null, "health_facility_type": null}},{"type": "Feature", "geometry": {"type":"Polygon","coordinates":[[[117.1526508,-0.486872],[117.1526556,-0.486942],[117.1527943,-0.486906],[117.152796,-0.4868321],[117.1526508,-0.486872]]]}, "properties": {"osm_id": 361290584, "osm_type": "ways_poly", "status": null, "opening_hours": null, "access": null, "toilets_disposal": null, "toilets_handwashing": null, "operator": null, "operator_type": null, "health_facility_bed": null, "staff_count_nurses": null, "health_facility_level": null, "medical_system_western": null, "staff_count_doctors": null, "health_facility_type": null}},{"type": "Feature", "geometry": {"type":"Polygon","coordinates":[[[117.1499879,-0.4596031],[117.1501005,-0.4596766],[117.1501371,-0.4596206],[117.1500245,-0.459547],[117.1499879,-0.4596031]]]}, "properties": {"osm_id": 355858298, "osm_type": "ways_poly", "status": null, "opening_hours": null, "access": null, "toilets_disposal": null, "toilets_handwashing": null, "operator": null, "operator_type": null, "health_facility_bed": null, "staff_count_nurses": null, "health_facility_level": null, "medical_system_western": null, "staff_count_doctors": null, "health_facility_type": null}},{"type": "Feature", "geometry": {"type":"Polygon","coordinates":[[[117.15426,-0.4450307],[117.1543897,-0.4450319],[117.1543902,-0.4449788],[117.1542605,-0.4449777],[117.15426,-0.4450307]]]}, "properties": {"osm_id": 356728169, "osm_type": "ways_poly", "status": null, "opening_hours": null, "access": null, "toilets_disposal": null, "toilets_handwashing": null, "operator": "Posyandu", "operator_type": "private", "health_facility_bed": null, "staff_count_nurses": null, "health_facility_level": null, "medical_system_western": null, "staff_count_doctors": null, "health_facility_type": null}},{"type": "Feature", "geometry": {"type":"Polygon","coordinates":[[[117.1540167,-0.4512432],[117.1540265,-0.4513604],[117.1543757,-0.4513312],[117.1543659,-0.451214],[117.1540167,-0.4512432]]]}, "properties": {"osm_id": 357021214, "osm_type": "ways_poly", "status": null, "opening_hours": null, "access": null, "toilets_disposal": null, "toilets_handwashing": null, "operator": "Ministry of Health", "operator_type": "government", "health_facility_bed": null, "staff_count_nurses": null, "health_facility_level": null, "medical_system_western": null, "staff_count_doctors": null, "health_facility_type": null}},{"type": "Feature", "geometry": {"type":"Polygon","coordinates":[[[117.1419091,-0.4347864],[117.1419491,-0.4348238],[117.1419937,-0.4347761],[117.1419537,-0.4347387],[117.1419091,-0.4347864]]]}, "properties": {"osm_id": 357650819, "osm_type": "ways_poly", "status": null, "opening_hours": null, "access": null, "toilets_disposal": null, "toilets_handwashing": null, "operator": "Ministry of Health", "operator_type": "government", "health_facility_bed": null, "staff_count_nurses": null, "health_facility_level": null, "medical_system_western": null, "staff_count_doctors": null, "health_facility_type": null}},{"type": "Feature", "geometry": {"type":"Polygon","coordinates":[[[117.121446,-0.4745557],[117.1215697,-0.4745743],[117.1215904,-0.4744368],[117.1214666,-0.4744182],[117.121446,-0.4745557]]]}, "properties": {"osm_id": 356318991, "osm_type": "ways_poly", "status": null, "opening_hours": null, "access": null, "toilets_disposal": null, "toilets_handwashing": null, "operator": "Ministry of Health", "operator_type": "government", "health_facility_bed": null, "staff_count_nurses": null, "health_facility_level": null, "medical_system_western": null, "staff_count_doctors": null, "health_facility_type": null}},{"type": "Feature", "geometry": {"type":"Polygon","coordinates":[[[117.2006826,-0.5756337],[117.2008465,-0.5757335],[117.2010182,-0.5754515],[117.2008543,-0.5753517],[117.2006826,-0.5756337]]]}, "properties": {"osm_id": 472571953, "osm_type": "ways_poly", "status": null, "opening_hours": null, "access": null, "toilets_disposal": null, "toilets_handwashing": null, "operator": "Ministry of Health", "operator_type": "government", "health_facility_bed": null, "staff_count_nurses": null, "health_facility_level": null, "medical_system_western": null, "staff_count_doctors": null, "health_facility_type": null}},{"type": "Feature", "geometry": {"type":"Polygon","coordinates":[[[117.1174064,-0.5101784],[117.1175745,-0.5102311],[117.117618,-0.5100923],[117.1174499,-0.5100397],[117.1174064,-0.5101784]]]}, "properties": {"osm_id": 355654088, "osm_type": "ways_poly", "status": null, "opening_hours": null, "access": null, "toilets_disposal": null, "toilets_handwashing": null, "operator": "Ministry of Health", "operator_type": "government", "health_facility_bed": null, "staff_count_nurses": null, "health_facility_level": null, "medical_system_western": null, "staff_count_doctors": null, "health_facility_type": null}},{"type": "Feature", "geometry": {"type":"Polygon","coordinates":[[[117.1809652,-0.5100544],[117.1810819,-0.5101048],[117.1811024,-0.5100573],[117.1809856,-0.510007],[117.1809652,-0.5100544]]]}, "properties": {"osm_id": 356451643, "osm_type": "ways_poly", "status": null, "opening_hours": null, "access": null, "toilets_disposal": null, "toilets_handwashing": null, "operator": null, "operator_type": null, "health_facility_bed": null, "staff_count_nurses": null, "health_facility_level": null, "medical_system_western": null, "staff_count_doctors": null, "health_facility_type": null}},{"type": "Feature", "geometry": {"type":"Polygon","coordinates":[[[117.1320174,-0.4722539],[117.1322025,-0.4722666],[117.132213,-0.4721136],[117.1320279,-0.4721009],[117.1320174,-0.4722539]]]}, "properties": {"osm_id": 574124627, "osm_type": "ways_poly", "status": null, "opening_hours": null, "access": null, "toilets_disposal": null, "toilets_handwashing": null, "operator": null, "operator_type": null, "health_facility_bed": null, "staff_count_nurses": null, "health_facility_level": null, "medical_system_western": null, "staff_count_doctors": null, "health_facility_type": null}},{"type": "Feature", "geometry": {"type":"Polygon","coordinates":[[[117.1419296,-0.4729138],[117.1422322,-0.4730306],[117.1422729,-0.4729191],[117.142057,-0.4728466],[117.1420747,-0.4727935],[117.1419845,-0.4727546],[117.1419296,-0.4729138]]]}, "properties": {"osm_id": 327404673, "osm_type": "ways_poly", "status": null, "opening_hours": null, "access": null, "toilets_disposal": null, "toilets_handwashing": null, "operator": null, "operator_type": "private", "health_facility_bed": null, "staff_count_nurses": null, "health_facility_level": null, "medical_system_western": null, "staff_count_doctors": null, "health_facility_type": null}},{"type": "Feature", "geometry": {"type":"Polygon","coordinates":[[[117.1478728,-0.5036616],[117.1481578,-0.5037689],[117.1481758,-0.503721],[117.148226,-0.5035877],[117.1481566,-0.5035615],[117.1481064,-0.5036948],[117.1478909,-0.5036137],[117.1478728,-0.5036616]]]}, "properties": {"osm_id": 362689544, "osm_type": "ways_poly", "status": null, "opening_hours": null, "access": null, "toilets_disposal": null, "toilets_handwashing": null, "operator": null, "operator_type": null, "health_facility_bed": null, "staff_count_nurses": null, "health_facility_level": null, "medical_system_western": null, "staff_count_doctors": null, "health_facility_type": null}},{"type": "Feature", "geometry": {"type":"Polygon","coordinates":[[[117.1558602,-0.4503034],[117.1559521,-0.4503283],[117.1560138,-0.4501003],[117.1559219,-0.4500754],[117.1558602,-0.4503034]]]}, "properties": {"osm_id": 582773067, "osm_type": "ways_poly", "status": null, "opening_hours": null, "access": null, "toilets_disposal": null, "toilets_handwashing": null, "operator": null, "operator_type": null, "health_facility_bed": null, "staff_count_nurses": null, "health_facility_level": null, "medical_system_western": null, "staff_count_doctors": null, "health_facility_type": null}},{"type": "Feature", "geometry": {"type":"Polygon","coordinates":[[[117.1641687,-0.48533],[117.1642406,-0.4854682],[117.164468,-0.48535],[117.1643961,-0.4852118],[117.1641687,-0.48533]]]}, "properties": {"osm_id": 358803258, "osm_type": "ways_poly", "status": null, "opening_hours": null, "access": null, "toilets_disposal": null, "toilets_handwashing": null, "operator": null, "operator_type": null, "health_facility_bed": null, "staff_count_nurses": null, "health_facility_level": null, "medical_system_western": null, "staff_count_doctors": null, "health_facility_type": null}},{"type": "Feature", "geometry": {"type":"Polygon","coordinates":[[[117.1705798,-0.4703643],[117.1707407,-0.4703473],[117.1707593,-0.4702049],[117.1705952,-0.4702915],[117.1705798,-0.4703643]]]}, "properties": {"osm_id": 358808433, "osm_type": "ways_poly", "status": null, "opening_hours": null, "access": null, "toilets_disposal": null, "toilets_handwashing": null, "operator": null, "operator_type": null, "health_facility_bed": null, "staff_count_nurses": null, "health_facility_level": null, "medical_system_western": null, "staff_count_doctors": null, "health_facility_type": null}},{"type": "Feature", "geometry": {"type":"Polygon","coordinates":[[[117.1615925,-0.4753812],[117.1617935,-0.4757307],[117.1619045,-0.475667],[117.1617035,-0.4753174],[117.1615925,-0.4753812]]]}, "properties": {"osm_id": 358495079, "osm_type": "ways_poly", "status": null, "opening_hours": null, "access": null, "toilets_disposal": null, "toilets_handwashing": null, "operator": null, "operator_type": null, "health_facility_bed": null, "staff_count_nurses": null, "health_facility_level": null, "medical_system_western": null, "staff_count_doctors": null, "health_facility_type": null}},{"type": "Feature", "geometry": {"type":"Polygon","coordinates":[[[117.1685087,-0.471335],[117.1685329,-0.4713797],[117.1685665,-0.4713615],[117.1685424,-0.4713168],[117.1685087,-0.471335]]]}, "properties": {"osm_id": 357118151, "osm_type": "ways_poly", "status": null, "opening_hours": null, "access": null, "toilets_disposal": null, "toilets_handwashing": null, "operator": null, "operator_type": null, "health_facility_bed": null, "staff_count_nurses": null, "health_facility_level": null, "medical_system_western": null, "staff_count_doctors": null, "health_facility_type": null}},{"type": "Feature", "geometry": {"type":"Polygon","coordinates":[[[117.1637557,-0.5327222],[117.1638009,-0.5327557],[117.1638292,-0.5327174],[117.163784,-0.532684],[117.1637557,-0.5327222]]]}, "properties": {"osm_id": 359679504, "osm_type": "ways_poly", "status": null, "opening_hours": null, "access": null, "toilets_disposal": null, "toilets_handwashing": null, "operator": null, "operator_type": null, "health_facility_bed": null, "staff_count_nurses": null, "health_facility_level": null, "medical_system_western": null, "staff_count_doctors": null, "health_facility_type": null}},{"type": "Feature", "geometry": {"type":"Polygon","coordinates":[[[117.1763359,-0.4469387],[117.1763366,-0.4470026],[117.1764208,-0.4470017],[117.1764201,-0.4469378],[117.1763359,-0.4469387]]]}, "properties": {"osm_id": 358468529, "osm_type": "ways_poly", "status": null, "opening_hours": null, "access": null, "toilets_disposal": null, "toilets_handwashing": null, "operator": null, "operator_type": null, "health_facility_bed": null, "staff_count_nurses": null, "health_facility_level": null, "medical_system_western": null, "staff_count_doctors": null, "health_facility_type": null}},{"type": "Feature", "geometry": {"type":"Polygon","coordinates":[[[117.1804075,-0.4332187],[117.1804472,-0.4332775],[117.1805331,-0.4332195],[117.1804933,-0.4331607],[117.1804075,-0.4332187]]]}, "properties": {"osm_id": 358726916, "osm_type": "ways_poly", "status": null, "opening_hours": null, "access": null, "toilets_disposal": null, "toilets_handwashing": null, "operator": null, "operator_type": null, "health_facility_bed": null, "staff_count_nurses": null, "health_facility_level": null, "medical_system_western": null, "staff_count_doctors": null, "health_facility_type": null}},{"type": "Feature", "geometry": {"type":"Polygon","coordinates":[[[117.2215306,-0.4389241],[117.2216814,-0.438951],[117.2216953,-0.4388729],[117.2215445,-0.438846],[117.2215306,-0.4389241]]]}, "properties": {"osm_id": 361649878, "osm_type": "ways_poly", "status": null, "opening_hours": null, "access": null, "toilets_disposal": null, "toilets_handwashing": null, "operator": null, "operator_type": null, "health_facility_bed": null, "staff_count_nurses": null, "health_facility_level": null, "medical_system_western": null, "staff_count_doctors": null, "health_facility_type": null}},{"type": "Feature", "geometry": {"type":"Polygon","coordinates":[[[117.2286855,-0.3796217],[117.2287823,-0.3796552],[117.2287974,-0.3796114],[117.2287007,-0.3795779],[117.2286855,-0.3796217]]]}, "properties": {"osm_id": 361649891, "osm_type": "ways_poly", "status": null, "opening_hours": null, "access": null, "toilets_disposal": null, "toilets_handwashing": null, "operator": null, "operator_type": null, "health_facility_bed": null, "staff_count_nurses": null, "health_facility_level": null, "medical_system_western": null, "staff_count_doctors": null, "health_facility_type": null}},{"type": "Feature", "geometry": {"type":"Polygon","coordinates":[[[117.2588403,-0.391551],[117.2588544,-0.391592],[117.2589243,-0.3915679],[117.2589102,-0.391527],[117.2588403,-0.391551]]]}, "properties": {"osm_id": 361649900, "osm_type": "ways_poly", "status": null, "opening_hours": null, "access": null, "toilets_disposal": null, "toilets_handwashing": null, "operator": null, "operator_type": null, "health_facility_bed": null, "staff_count_nurses": null, "health_facility_level": null, "medical_system_western": null, "staff_count_doctors": null, "health_facility_type": null}},{"type": "Feature", "geometry": {"type":"Polygon","coordinates":[[[117.2396851,-0.4022795],[117.23986,-0.4024916],[117.2399791,-0.4023935],[117.2398042,-0.4021814],[117.2396851,-0.4022795]]]}, "properties": {"osm_id": 361649901, "osm_type": "ways_poly", "status": null, "opening_hours": null, "access": null, "toilets_disposal": null, "toilets_handwashing": null, "operator": null, "operator_type": null, "health_facility_bed": null, "staff_count_nurses": null, "health_facility_level": null, "medical_system_western": null, "staff_count_doctors": null, "health_facility_type": null}},{"type": "Feature", "geometry": {"type":"Polygon","coordinates":[[[117.2397433,-0.4026117],[117.2397899,-0.402675],[117.2400581,-0.4024778],[117.2400115,-0.4024145],[117.2397433,-0.4026117]]]}, "properties": {"osm_id": 361649902, "osm_type": "ways_poly", "status": null, "opening_hours": null, "access": null, "toilets_disposal": null, "toilets_handwashing": null, "operator": null, "operator_type": null, "health_facility_bed": null, "staff_count_nurses": null, "health_facility_level": null, "medical_system_western": null, "staff_count_doctors": null, "health_facility_type": null}},{"type": "Feature", "geometry": {"type":"Polygon","coordinates":[[[117.2396955,-0.4029672],[117.2397848,-0.4030193],[117.2398999,-0.402822],[117.2398106,-0.4027699],[117.2396955,-0.4029672]]]}, "properties": {"osm_id": 361649903, "osm_type": "ways_poly", "status": null, "opening_hours": null, "access": null, "toilets_disposal": null, "toilets_handwashing": null, "operator": null, "operator_type": null, "health_facility_bed": null, "staff_count_nurses": null, "health_facility_level": null, "medical_system_western": null, "staff_count_doctors": null, "health_facility_type": null}},{"type": "Feature", "geometry": {"type":"Polygon","coordinates":[[[117.2393692,-0.4028296],[117.2396334,-0.4029711],[117.2396803,-0.4028834],[117.2394161,-0.402742],[117.2393692,-0.4028296]]]}, "properties": {"osm_id": 361649904, "osm_type": "ways_poly", "status": null, "opening_hours": null, "access": null, "toilets_disposal": null, "toilets_handwashing": null, "operator": null, "operator_type": null, "health_facility_bed": null, "staff_count_nurses": null, "health_facility_level": null, "medical_system_western": null, "staff_count_doctors": null, "health_facility_type": null}},{"type": "Feature", "geometry": {"type":"Polygon","coordinates":[[[117.2393534,-0.4026704],[117.2394334,-0.4027207],[117.2394831,-0.4026415],[117.2394031,-0.4025913],[117.2393534,-0.4026704]]]}, "properties": {"osm_id": 361649905, "osm_type": "ways_poly", "status": null, "opening_hours": null, "access": null, "toilets_disposal": null, "toilets_handwashing": null, "operator": null, "operator_type": null, "health_facility_bed": null, "staff_count_nurses": null, "health_facility_level": null, "medical_system_western": null, "staff_count_doctors": null, "health_facility_type": null}},{"type": "Feature", "geometry": {"type":"Polygon","coordinates":[[[117.1689195,-0.532438],[117.169074,-0.5326139],[117.1692126,-0.5324921],[117.169058,-0.5323163],[117.1689195,-0.532438]]]}, "properties": {"osm_id": 356886733, "osm_type": "ways_poly", "status": null, "opening_hours": null, "access": null, "toilets_disposal": null, "toilets_handwashing": null, "operator": null, "operator_type": null, "health_facility_bed": null, "staff_count_nurses": null, "health_facility_level": null, "medical_system_western": null, "staff_count_doctors": null, "health_facility_type": null}},{"type": "Feature", "geometry": {"type":"Polygon","coordinates":[[[117.1652712,-0.5111627],[117.1653379,-0.5112186],[117.1653763,-0.5111727],[117.1653096,-0.5111169],[117.1652712,-0.5111627]]]}, "properties": {"osm_id": 359675928, "osm_type": "ways_poly", "status": null, "opening_hours": null, "access": null, "toilets_disposal": null, "toilets_handwashing": null, "operator": null, "operator_type": null, "health_facility_bed": null, "staff_count_nurses": null, "health_facility_level": null, "medical_system_western": null, "staff_count_doctors": null, "health_facility_type": null}},{"type": "Feature", "geometry": {"type":"Polygon","coordinates":[[[117.2236275,-0.5570876],[117.223948,-0.5570998],[117.2239639,-0.5565097],[117.2236675,-0.5564935],[117.2236275,-0.5570876]]]}, "properties": {"osm_id": 356213407, "osm_type": "ways_poly", "status": null, "opening_hours": null, "access": null, "toilets_disposal": null, "toilets_handwashing": null, "operator": null, "operator_type": null, "health_facility_bed": null, "staff_count_nurses": null, "health_facility_level": null, "medical_system_western": null, "staff_count_doctors": null, "health_facility_type": null}},{"type": "Feature", "geometry": {"type":"Polygon","coordinates":[[[117.1693038,-0.4211703],[117.1693578,-0.4211687],[117.169358,-0.4210956],[117.1693064,-0.4210904],[117.1693038,-0.4211703]]]}, "properties": {"osm_id": 574765590, "osm_type": "ways_poly", "status": null, "opening_hours": null, "access": null, "toilets_disposal": null, "toilets_handwashing": null, "operator": null, "operator_type": null, "health_facility_bed": null, "staff_count_nurses": null, "health_facility_level": null, "medical_system_western": null, "staff_count_doctors": null, "health_facility_type": null}},{"type": "Feature", "geometry": {"type":"Polygon","coordinates":[[[117.1682819,-0.4201624],[117.1683464,-0.4201633],[117.1683497,-0.4200859],[117.1682847,-0.4200798],[117.1682819,-0.4201624]]]}, "properties": {"osm_id": 361649895, "osm_type": "ways_poly", "status": null, "opening_hours": null, "access": null, "toilets_disposal": null, "toilets_handwashing": null, "operator": null, "operator_type": null, "health_facility_bed": null, "staff_count_nurses": null, "health_facility_level": null, "medical_system_western": null, "staff_count_doctors": null, "health_facility_type": null}},{"type": "Feature", "geometry": {"type":"Polygon","coordinates":[[[117.1809799,-0.4328657],[117.1810295,-0.4329392],[117.1811945,-0.4328278],[117.1811449,-0.4327543],[117.1809799,-0.4328657]]]}, "properties": {"osm_id": 358726914, "osm_type": "ways_poly", "status": null, "opening_hours": null, "access": null, "toilets_disposal": null, "toilets_handwashing": null, "operator": null, "operator_type": null, "health_facility_bed": null, "staff_count_nurses": null, "health_facility_level": null, "medical_system_western": null, "staff_count_doctors": null, "health_facility_type": null}},{"type": "Feature", "geometry": {"type":"Polygon","coordinates":[[[117.1087135,-0.5076114],[117.1088869,-0.5077288],[117.1089786,-0.507861],[117.1095568,-0.5080551],[117.1097182,-0.5078918],[117.1096276,-0.5069585],[117.1089639,-0.5068066],[117.1087135,-0.5076114]]]}, "properties": {"osm_id": 783009447, "osm_type": "ways_poly", "status": null, "opening_hours": null, "access": null, "toilets_disposal": null, "toilets_handwashing": null, "operator": null, "operator_type": "private", "health_facility_bed": null, "staff_count_nurses": null, "health_facility_level": null, "medical_system_western": null, "staff_count_doctors": null, "health_facility_type": null}},{"type": "Feature", "geometry": {"type":"Polygon","coordinates":[[[117.1625201,-0.4272011],[117.1626051,-0.4272426],[117.1626414,-0.4271685],[117.1625564,-0.4271269],[117.1625201,-0.4272011]]]}, "properties": {"osm_id": 357650792, "osm_type": "ways_poly", "status": null, "opening_hours": null, "access": null, "toilets_disposal": null, "toilets_handwashing": null, "operator": null, "operator_type": null, "health_facility_bed": null, "staff_count_nurses": null, "health_facility_level": null, "medical_system_western": null, "staff_count_doctors": null, "health_facility_type": null}},{"type": "Feature", "geometry": {"type":"Polygon","coordinates":[[[117.1623222,-0.4272828],[117.1624264,-0.4273338],[117.1625161,-0.4271505],[117.1624118,-0.4270995],[117.1623222,-0.4272828]]]}, "properties": {"osm_id": 357650816, "osm_type": "ways_poly", "status": null, "opening_hours": null, "access": null, "toilets_disposal": null, "toilets_handwashing": null, "operator": null, "operator_type": null, "health_facility_bed": null, "staff_count_nurses": null, "health_facility_level": null, "medical_system_western": null, "staff_count_doctors": null, "health_facility_type": null}},{"type": "Feature", "geometry": {"type":"Polygon","coordinates":[[[117.1873815,-0.4630883],[117.1874459,-0.4631249],[117.1875251,-0.4629751],[117.1874598,-0.4629385],[117.1873815,-0.4630883]]]}, "properties": {"osm_id": 359079402, "osm_type": "ways_poly", "status": null, "opening_hours": null, "access": null, "toilets_disposal": null, "toilets_handwashing": null, "operator": null, "operator_type": null, "health_facility_bed": null, "staff_count_nurses": null, "health_facility_level": null, "medical_system_western": null, "staff_count_doctors": null, "health_facility_type": null}},{"type": "Feature", "geometry": {"type":"Polygon","coordinates":[[[117.087429,-0.5663184],[117.0874304,-0.5663799],[117.0876349,-0.5663752],[117.0876335,-0.5663137],[117.087429,-0.5663184]]]}, "properties": {"osm_id": 576372840, "osm_type": "ways_poly", "status": null, "opening_hours": null, "access": null, "toilets_disposal": null, "toilets_handwashing": null, "operator": null, "operator_type": null, "health_facility_bed": null, "staff_count_nurses": null, "health_facility_level": null, "medical_system_western": null, "staff_count_doctors": null, "health_facility_type": null}},{"type": "Feature", "geometry": {"type":"Polygon","coordinates":[[[117.1265587,-0.5180046],[117.1266377,-0.5181503],[117.1267255,-0.5181027],[117.1266464,-0.517957],[117.1265587,-0.5180046]]]}, "properties": {"osm_id": 357297860, "osm_type": "ways_poly", "status": null, "opening_hours": null, "access": null, "toilets_disposal": null, "toilets_handwashing": null, "operator": null, "operator_type": null, "health_facility_bed": null, "staff_count_nurses": null, "health_facility_level": null, "medical_system_western": null, "staff_count_doctors": null, "health_facility_type": null}},{"type": "Feature", "geometry": {"type":"Polygon","coordinates":[[[117.1046712,-0.5430162],[117.1048697,-0.5430175],[117.1048708,-0.5428485],[117.1046723,-0.5428471],[117.1046712,-0.5430162]]]}, "properties": {"osm_id": 574179549, "osm_type": "ways_poly", "status": null, "opening_hours": null, "access": null, "toilets_disposal": null, "toilets_handwashing": null, "operator": null, "operator_type": null, "health_facility_bed": null, "staff_count_nurses": null, "health_facility_level": null, "medical_system_western": null, "staff_count_doctors": null, "health_facility_type": null}},{"type": "Feature", "geometry": {"type":"Polygon","coordinates":[[[117.158841,-0.5060259],[117.1600537,-0.5064134],[117.1601251,-0.5062963],[117.1603277,-0.5064214],[117.1610336,-0.5052287],[117.1607427,-0.5050852],[117.1600022,-0.5047833],[117.159723,-0.505517],[117.1596799,-0.5055253],[117.1595923,-0.5054979],[117.1594975,-0.5057781],[117.1589724,-0.505621],[117.158841,-0.5060259]]]}, "properties": {"osm_id": 317762493, "osm_type": "ways_poly", "status": null, "opening_hours": null, "access": null, "toilets_disposal": null, "toilets_handwashing": null, "operator": "Pemerintah Kota Samarinda", "operator_type": "government", "health_facility_bed": null, "staff_count_nurses": null, "health_facility_level": null, "medical_system_western": null, "staff_count_doctors": null, "health_facility_type": null}},{"type": "Feature", "geometry": {"type":"Polygon","coordinates":[[[117.1805872,-0.5671929],[117.1805954,-0.5673481],[117.1805989,-0.5675058],[117.1808464,-0.5675003],[117.180843,-0.5673444],[117.1806855,-0.5673467],[117.180674,-0.5671354],[117.1807963,-0.5671301],[117.1807939,-0.5670184],[117.1806311,-0.567022],[117.1806336,-0.5671344],[117.1806348,-0.567192],[117.1805872,-0.5671929]]]}, "properties": {"osm_id": 355881119, "osm_type": "ways_poly", "status": null, "opening_hours": null, "access": null, "toilets_disposal": null, "toilets_handwashing": null, "operator": "Ministry of Health", "operator_type": null, "health_facility_bed": null, "staff_count_nurses": null, "health_facility_level": null, "medical_system_western": null, "staff_count_doctors": null, "health_facility_type": null}},{"type": "Feature", "geometry": {"type":"Polygon","coordinates":[[[117.1805584,-0.5668977],[117.1805769,-0.5675709],[117.1808758,-0.5675647],[117.1813609,-0.5673214],[117.1812064,-0.566892],[117.1805584,-0.5668977]]]}, "properties": {"osm_id": 1027658311, "osm_type": "ways_poly", "status": null, "opening_hours": null, "access": null, "toilets_disposal": null, "toilets_handwashing": null, "operator": null, "operator_type": null, "health_facility_bed": null, "staff_count_nurses": null, "health_facility_level": null, "medical_system_western": null, "staff_count_doctors": null, "health_facility_type": null}},{"type": "Feature", "geometry": {"type":"Polygon","coordinates":[[[117.1459437,-0.5179172],[117.1459678,-0.5179937],[117.1460011,-0.5179832],[117.1459769,-0.5179067],[117.1459437,-0.5179172]]]}, "properties": {"osm_id": 577249457, "osm_type": "ways_poly", "status": null, "opening_hours": null, "access": null, "toilets_disposal": null, "toilets_handwashing": null, "operator": null, "operator_type": null, "health_facility_bed": null, "staff_count_nurses": null, "health_facility_level": null, "medical_system_western": null, "staff_count_doctors": null, "health_facility_type": null}},{"type": "Feature", "geometry": {"type":"Polygon","coordinates":[[[117.1361811,-0.5292334],[117.136262,-0.5292862],[117.1363237,-0.5291916],[117.1362428,-0.5291389],[117.1361811,-0.5292334]]]}, "properties": {"osm_id": 581279888, "osm_type": "ways_poly", "status": null, "opening_hours": null, "access": null, "toilets_disposal": null, "toilets_handwashing": null, "operator": null, "operator_type": null, "health_facility_bed": null, "staff_count_nurses": null, "health_facility_level": null, "medical_system_western": null, "staff_count_doctors": null, "health_facility_type": null}},{"type": "Feature", "geometry": {"type":"Polygon","coordinates":[[[117.1063373,-0.5399097],[117.1064203,-0.5399107],[117.1064212,-0.5398445],[117.1063381,-0.5398434],[117.1063373,-0.5399097]]]}, "properties": {"osm_id": 357291359, "osm_type": "ways_poly", "status": null, "opening_hours": null, "access": null, "toilets_disposal": null, "toilets_handwashing": null, "operator": null, "operator_type": null, "health_facility_bed": null, "staff_count_nurses": null, "health_facility_level": null, "medical_system_western": null, "staff_count_doctors": null, "health_facility_type": null}},{"type": "Feature", "geometry": {"type":"Polygon","coordinates":[[[117.1680982,-0.4228984],[117.1681005,-0.4229951],[117.1681452,-0.422994],[117.168143,-0.4228973],[117.1680982,-0.4228984]]]}, "properties": {"osm_id": 361649890, "osm_type": "ways_poly", "status": null, "opening_hours": null, "access": null, "toilets_disposal": null, "toilets_handwashing": null, "operator": null, "operator_type": null, "health_facility_bed": null, "staff_count_nurses": null, "health_facility_level": null, "medical_system_western": null, "staff_count_doctors": null, "health_facility_type": null}},{"type": "Feature", "geometry": {"type":"Polygon","coordinates":[[[117.1222226,-0.5369833],[117.1222894,-0.5370027],[117.1223018,-0.5369601],[117.1222349,-0.5369407],[117.1222226,-0.5369833]]]}, "properties": {"osm_id": 356545262, "osm_type": "ways_poly", "status": null, "opening_hours": null, "access": null, "toilets_disposal": null, "toilets_handwashing": null, "operator": null, "operator_type": null, "health_facility_bed": null, "staff_count_nurses": null, "health_facility_level": null, "medical_system_western": null, "staff_count_doctors": null, "health_facility_type": null}},{"type": "Feature", "geometry": {"type":"Polygon","coordinates":[[[117.165637,-0.4104386],[117.1656523,-0.4104967],[117.1656953,-0.4104854],[117.16568,-0.4104273],[117.165637,-0.4104386]]]}, "properties": {"osm_id": 358726909, "osm_type": "ways_poly", "status": null, "opening_hours": null, "access": null, "toilets_disposal": null, "toilets_handwashing": null, "operator": null, "operator_type": null, "health_facility_bed": null, "staff_count_nurses": null, "health_facility_level": null, "medical_system_western": null, "staff_count_doctors": null, "health_facility_type": null}},{"type": "Feature", "geometry": {"type":"Polygon","coordinates":[[[117.176144,-0.354676],[117.1762,-0.3546994],[117.1762577,-0.3545613],[117.1762016,-0.3545379],[117.176144,-0.354676]]]}, "properties": {"osm_id": 432043921, "osm_type": "ways_poly", "status": null, "opening_hours": null, "access": null, "toilets_disposal": null, "toilets_handwashing": null, "operator": null, "operator_type": null, "health_facility_bed": null, "staff_count_nurses": null, "health_facility_level": null, "medical_system_western": null, "staff_count_doctors": null, "health_facility_type": null}},{"type": "Feature", "geometry": {"type":"Polygon","coordinates":[[[117.1655183,-0.410532],[117.1655413,-0.4106187],[117.1656708,-0.4105843],[117.1656478,-0.4104976],[117.1655183,-0.410532]]]}, "properties": {"osm_id": 358726918, "osm_type": "ways_poly", "status": null, "opening_hours": null, "access": null, "toilets_disposal": null, "toilets_handwashing": null, "operator": null, "operator_type": null, "health_facility_bed": null, "staff_count_nurses": null, "health_facility_level": null, "medical_system_western": null, "staff_count_doctors": null, "health_facility_type": null}},{"type": "Feature", "geometry": {"type":"Polygon","coordinates":[[[117.2272689,-0.3881733],[117.2273241,-0.3882019],[117.2273554,-0.3881415],[117.2273002,-0.3881128],[117.2272689,-0.3881733]]]}, "properties": {"osm_id": 361649892, "osm_type": "ways_poly", "status": null, "opening_hours": null, "access": null, "toilets_disposal": null, "toilets_handwashing": null, "operator": null, "operator_type": null, "health_facility_bed": null, "staff_count_nurses": null, "health_facility_level": null, "medical_system_western": null, "staff_count_doctors": null, "health_facility_type": null}},{"type": "Feature", "geometry": {"type":"Polygon","coordinates":[[[117.2287166,-0.3798366],[117.2287817,-0.3798663],[117.2288421,-0.3797342],[117.228777,-0.3797044],[117.2287166,-0.3798366]]]}, "properties": {"osm_id": 361649899, "osm_type": "ways_poly", "status": null, "opening_hours": null, "access": null, "toilets_disposal": null, "toilets_handwashing": null, "operator": null, "operator_type": null, "health_facility_bed": null, "staff_count_nurses": null, "health_facility_level": null, "medical_system_western": null, "staff_count_doctors": null, "health_facility_type": null}},{"type": "Feature", "geometry": {"type":"Polygon","coordinates":[[[117.1790783,-0.5401374],[117.1791247,-0.5401669],[117.1791404,-0.5401421],[117.179094,-0.5401127],[117.1790783,-0.5401374]]]}, "properties": {"osm_id": 359691038, "osm_type": "ways_poly", "status": null, "opening_hours": null, "access": null, "toilets_disposal": null, "toilets_handwashing": null, "operator": null, "operator_type": null, "health_facility_bed": null, "staff_count_nurses": null, "health_facility_level": null, "medical_system_western": null, "staff_count_doctors": null, "health_facility_type": null}},{"type": "Feature", "geometry": {"type":"Polygon","coordinates":[[[117.1619516,-0.5045186],[117.1620109,-0.5045556],[117.1620922,-0.5044253],[117.1620329,-0.5043883],[117.1619516,-0.5045186]]]}, "properties": {"osm_id": 363141375, "osm_type": "ways_poly", "status": null, "opening_hours": null, "access": null, "toilets_disposal": null, "toilets_handwashing": null, "operator": null, "operator_type": null, "health_facility_bed": null, "staff_count_nurses": null, "health_facility_level": null, "medical_system_western": null, "staff_count_doctors": null, "health_facility_type": null}},{"type": "Feature", "geometry": {"type":"Polygon","coordinates":[[[117.1990462,-0.5138587],[117.1992286,-0.5139405],[117.1993049,-0.5137704],[117.1991224,-0.5136886],[117.1990462,-0.5138587]]]}, "properties": {"osm_id": 356886732, "osm_type": "ways_poly", "status": null, "opening_hours": null, "access": null, "toilets_disposal": null, "toilets_handwashing": null, "operator": null, "operator_type": null, "health_facility_bed": null, "staff_count_nurses": null, "health_facility_level": null, "medical_system_western": null, "staff_count_doctors": null, "health_facility_type": null}},{"type": "Feature", "geometry": {"type":"Polygon","coordinates":[[[117.1416861,-0.4739463],[117.1417008,-0.4740078],[117.1416913,-0.4740412],[117.1417673,-0.4743075],[117.1421293,-0.4742064],[117.1422386,-0.4741186],[117.1421141,-0.4738443],[117.141767,-0.4739269],[117.1416861,-0.4739463]]]}, "properties": {"osm_id": 326320920, "osm_type": "ways_poly", "status": null, "opening_hours": null, "access": null, "toilets_disposal": null, "toilets_handwashing": null, "operator": null, "operator_type": null, "health_facility_bed": null, "staff_count_nurses": null, "health_facility_level": null, "medical_system_western": null, "staff_count_doctors": null, "health_facility_type": null}},{"type": "Feature", "geometry": {"type":"Polygon","coordinates":[[[117.1483233,-0.4948874],[117.1489033,-0.4952294],[117.1490372,-0.494938],[117.149111,-0.4948077],[117.149237,-0.4946643],[117.1486379,-0.4943333],[117.1485538,-0.4944757],[117.1484861,-0.4946251],[117.1483233,-0.4948874]]]}, "properties": {"osm_id": 326091418, "osm_type": "ways_poly", "status": null, "opening_hours": null, "access": null, "toilets_disposal": null, "toilets_handwashing": null, "operator": null, "operator_type": "private", "health_facility_bed": null, "staff_count_nurses": null, "health_facility_level": null, "medical_system_western": null, "staff_count_doctors": null, "health_facility_type": null}},{"type": "Feature", "geometry": {"type":"Polygon","coordinates":[[[117.1737425,-0.4564629],[117.173751,-0.456511],[117.1738502,-0.4564936],[117.1738417,-0.4564455],[117.1737425,-0.4564629]]]}, "properties": {"osm_id": 577416017, "osm_type": "ways_poly", "status": null, "opening_hours": null, "access": null, "toilets_disposal": null, "toilets_handwashing": null, "operator": "Posyandu", "operator_type": null, "health_facility_bed": null, "staff_count_nurses": null, "health_facility_level": null, "medical_system_western": null, "staff_count_doctors": null, "health_facility_type": null}},{"type": "Feature", "geometry": {"type":"Polygon","coordinates":[[[117.1427092,-0.4810574],[117.1434227,-0.4811593],[117.1433476,-0.4820819],[117.143204,-0.4831763],[117.1444357,-0.4832671],[117.1445077,-0.482814],[117.1447219,-0.4828334],[117.1448207,-0.4827639],[117.1451875,-0.4827168],[117.1453913,-0.4805015],[117.1454473,-0.4800595],[117.1456814,-0.4789926],[117.1452023,-0.4789278],[117.1452331,-0.4786965],[117.1452226,-0.4786708],[117.1438182,-0.4784718],[117.1436955,-0.4795152],[117.1432188,-0.4794427],[117.1431169,-0.4802956],[117.1428165,-0.480242],[117.1427092,-0.4810574]]]}, "properties": {"osm_id": 326320969, "osm_type": "ways_poly", "status": null, "opening_hours": null, "access": null, "toilets_disposal": null, "toilets_handwashing": null, "operator": null, "operator_type": "government", "health_facility_bed": null, "staff_count_nurses": null, "health_facility_level": null, "medical_system_western": null, "staff_count_doctors": null, "health_facility_type": null}},{"type": "Feature", "geometry": {"type":"Polygon","coordinates":[[[117.1899625,-0.4547075],[117.1901431,-0.4547792],[117.1902251,-0.4545727],[117.190412,-0.4546469],[117.190475,-0.4544882],[117.1901076,-0.4543423],[117.1899625,-0.4547075]]]}, "properties": {"osm_id": 355655476, "osm_type": "ways_poly", "status": null, "opening_hours": null, "access": null, "toilets_disposal": null, "toilets_handwashing": null, "operator": null, "operator_type": null, "health_facility_bed": null, "staff_count_nurses": null, "health_facility_level": null, "medical_system_western": null, "staff_count_doctors": null, "health_facility_type": null}},{"type": "Feature", "geometry": {"type":"Polygon","coordinates":[[[117.2215675,-0.4390238],[117.2216481,-0.4390379],[117.2216583,-0.4389795],[117.2215777,-0.4389655],[117.2215675,-0.4390238]]]}, "properties": {"osm_id": 361649893, "osm_type": "ways_poly", "status": null, "opening_hours": null, "access": null, "toilets_disposal": null, "toilets_handwashing": null, "operator": null, "operator_type": null, "health_facility_bed": null, "staff_count_nurses": null, "health_facility_level": null, "medical_system_western": null, "staff_count_doctors": null, "health_facility_type": null}},{"type": "Feature", "geometry": {"type":"Polygon","coordinates":[[[117.1511403,-0.4816449],[117.1511585,-0.4817772],[117.1513457,-0.4817514],[117.1513275,-0.4816191],[117.1511403,-0.4816449]]]}, "properties": {"osm_id": 361290585, "osm_type": "ways_poly", "status": null, "opening_hours": null, "access": null, "toilets_disposal": null, "toilets_handwashing": null, "operator": null, "operator_type": null, "health_facility_bed": null, "staff_count_nurses": null, "health_facility_level": null, "medical_system_western": null, "staff_count_doctors": null, "health_facility_type": null}},{"type": "Feature", "geometry": {"type":"Polygon","coordinates":[[[117.1561613,-0.4651932],[117.1562417,-0.4652531],[117.156349,-0.4651089],[117.1562686,-0.465049],[117.1561613,-0.4651932]]]}, "properties": {"osm_id": 577622328, "osm_type": "ways_poly", "status": null, "opening_hours": null, "access": null, "toilets_disposal": null, "toilets_handwashing": null, "operator": null, "operator_type": null, "health_facility_bed": null, "staff_count_nurses": null, "health_facility_level": null, "medical_system_western": null, "staff_count_doctors": null, "health_facility_type": null}},{"type": "Feature", "geometry": {"type":"Polygon","coordinates":[[[117.1483675,-0.466309],[117.1485324,-0.46638],[117.1486051,-0.4662115],[117.1484401,-0.4661404],[117.1483675,-0.466309]]]}, "properties": {"osm_id": 577622996, "osm_type": "ways_poly", "status": null, "opening_hours": null, "access": null, "toilets_disposal": null, "toilets_handwashing": null, "operator": null, "operator_type": null, "health_facility_bed": null, "staff_count_nurses": null, "health_facility_level": null, "medical_system_western": null, "staff_count_doctors": null, "health_facility_type": null}},{"type": "Feature", "geometry": {"type":"Polygon","coordinates":[[[117.1930239,-0.4436273],[117.193099,-0.4436457],[117.1931125,-0.4435908],[117.1930374,-0.4435724],[117.1930239,-0.4436273]]]}, "properties": {"osm_id": 358726911, "osm_type": "ways_poly", "status": null, "opening_hours": null, "access": null, "toilets_disposal": null, "toilets_handwashing": null, "operator": null, "operator_type": null, "health_facility_bed": null, "staff_count_nurses": null, "health_facility_level": null, "medical_system_western": null, "staff_count_doctors": null, "health_facility_type": null}},{"type": "Feature", "geometry": {"type":"Polygon","coordinates":[[[117.1272456,-0.4912548],[117.1272571,-0.4913452],[117.1273787,-0.4913296],[117.1273671,-0.4912392],[117.1272456,-0.4912548]]]}, "properties": {"osm_id": 577335022, "osm_type": "ways_poly", "status": null, "opening_hours": null, "access": null, "toilets_disposal": null, "toilets_handwashing": null, "operator": null, "operator_type": null, "health_facility_bed": null, "staff_count_nurses": null, "health_facility_level": null, "medical_system_western": null, "staff_count_doctors": null, "health_facility_type": null}},{"type": "Feature", "geometry": {"type":"Polygon","coordinates":[[[117.1416104,-0.5104061],[117.1417677,-0.5105191],[117.1421171,-0.5100356],[117.1420646,-0.5099974],[117.1420759,-0.509971],[117.1420393,-0.5099448],[117.1420148,-0.509979],[117.1419932,-0.5099634],[117.14197,-0.5099957],[117.1419408,-0.5099748],[117.1419139,-0.5100123],[117.1419504,-0.5100385],[117.1417861,-0.5102674],[117.1417358,-0.5102314],[117.1416104,-0.5104061]]]}, "properties": {"osm_id": 357300434, "osm_type": "ways_poly", "status": null, "opening_hours": null, "access": null, "toilets_disposal": null, "toilets_handwashing": null, "operator": null, "operator_type": null, "health_facility_bed": null, "staff_count_nurses": null, "health_facility_level": null, "medical_system_western": null, "staff_count_doctors": null, "health_facility_type": null}},{"type": "Feature", "geometry": {"type":"Polygon","coordinates":[[[117.2586986,-0.3933391],[117.2587128,-0.3933491],[117.2587218,-0.3933363],[117.2587075,-0.3933263],[117.2586986,-0.3933391]]]}, "properties": {"osm_id": 361649894, "osm_type": "ways_poly", "status": null, "opening_hours": null, "access": null, "toilets_disposal": null, "toilets_handwashing": null, "operator": null, "operator_type": null, "health_facility_bed": null, "staff_count_nurses": null, "health_facility_level": null, "medical_system_western": null, "staff_count_doctors": null, "health_facility_type": null}},{"type": "Feature", "geometry": {"type":"Polygon","coordinates":[[[117.1665386,-0.41903],[117.1665757,-0.4190671],[117.1666211,-0.4190217],[117.166584,-0.4189846],[117.1665386,-0.41903]]]}, "properties": {"osm_id": 361649896, "osm_type": "ways_poly", "status": null, "opening_hours": null, "access": null, "toilets_disposal": null, "toilets_handwashing": null, "operator": null, "operator_type": null, "health_facility_bed": null, "staff_count_nurses": null, "health_facility_level": null, "medical_system_western": null, "staff_count_doctors": null, "health_facility_type": null}},{"type": "Feature", "geometry": {"type":"Polygon","coordinates":[[[117.1554117,-0.4783669],[117.1555827,-0.478547],[117.1557446,-0.4783783],[117.1555783,-0.4782135],[117.1554117,-0.4783669]]]}, "properties": {"osm_id": 357103556, "osm_type": "ways_poly", "status": null, "opening_hours": null, "access": null, "toilets_disposal": null, "toilets_handwashing": null, "operator": null, "operator_type": "private", "health_facility_bed": null, "staff_count_nurses": null, "health_facility_level": null, "medical_system_western": null, "staff_count_doctors": null, "health_facility_type": null}},{"type": "Feature", "geometry": {"type":"Polygon","coordinates":[[[117.1649664,-0.476994],[117.1650346,-0.4770914],[117.1653752,-0.476853],[117.165307,-0.4767556],[117.1649664,-0.476994]]]}, "properties": {"osm_id": 357423025, "osm_type": "ways_poly", "status": null, "opening_hours": null, "access": null, "toilets_disposal": null, "toilets_handwashing": null, "operator": null, "operator_type": null, "health_facility_bed": null, "staff_count_nurses": null, "health_facility_level": null, "medical_system_western": null, "staff_count_doctors": null, "health_facility_type": null}},{"type": "Feature", "geometry": {"type":"Polygon","coordinates":[[[117.1559618,-0.4787464],[117.1560298,-0.4788798],[117.1561479,-0.4788196],[117.1560799,-0.4786862],[117.1559618,-0.4787464]]]}, "properties": {"osm_id": 359090017, "osm_type": "ways_poly", "status": null, "opening_hours": null, "access": null, "toilets_disposal": null, "toilets_handwashing": null, "operator": null, "operator_type": null, "health_facility_bed": null, "staff_count_nurses": null, "health_facility_level": null, "medical_system_western": null, "staff_count_doctors": null, "health_facility_type": null}},{"type": "Feature", "geometry": {"type":"Polygon","coordinates":[[[117.1759253,-0.4361925],[117.1759394,-0.4362231],[117.1759672,-0.4362103],[117.1759532,-0.4361797],[117.1759253,-0.4361925]]]}, "properties": {"osm_id": 358468531, "osm_type": "ways_poly", "status": null, "opening_hours": null, "access": null, "toilets_disposal": null, "toilets_handwashing": null, "operator": null, "operator_type": null, "health_facility_bed": null, "staff_count_nurses": null, "health_facility_level": null, "medical_system_western": null, "staff_count_doctors": null, "health_facility_type": null}},{"type": "Feature", "geometry": {"type":"Polygon","coordinates":[[[117.165422,-0.4731219],[117.1655137,-0.4732966],[117.1655843,-0.4732596],[117.1654925,-0.4730849],[117.165422,-0.4731219]]]}, "properties": {"osm_id": 358495078, "osm_type": "ways_poly", "status": null, "opening_hours": null, "access": null, "toilets_disposal": null, "toilets_handwashing": null, "operator": null, "operator_type": null, "health_facility_bed": null, "staff_count_nurses": null, "health_facility_level": null, "medical_system_western": null, "staff_count_doctors": null, "health_facility_type": null}},{"type": "Feature", "geometry": {"type":"Polygon","coordinates":[[[117.2439672,-0.3523779],[117.2439973,-0.352508],[117.2440908,-0.3524863],[117.2440606,-0.3523562],[117.2439672,-0.3523779]]]}, "properties": {"osm_id": 416631864, "osm_type": "ways_poly", "status": null, "opening_hours": null, "access": null, "toilets_disposal": null, "toilets_handwashing": null, "operator": null, "operator_type": null, "health_facility_bed": null, "staff_count_nurses": null, "health_facility_level": null, "medical_system_western": null, "staff_count_doctors": null, "health_facility_type": null}},{"type": "Feature", "geometry": {"type":"Polygon","coordinates":[[[117.1537902,-0.4854545],[117.1538298,-0.4855947],[117.1538875,-0.4855784],[117.153848,-0.4854382],[117.1537902,-0.4854545]]]}, "properties": {"osm_id": 575580067, "osm_type": "ways_poly", "status": null, "opening_hours": null, "access": null, "toilets_disposal": null, "toilets_handwashing": null, "operator": null, "operator_type": null, "health_facility_bed": null, "staff_count_nurses": null, "health_facility_level": null, "medical_system_western": null, "staff_count_doctors": null, "health_facility_type": null}},{"type": "Feature", "geometry": {"type":"Polygon","coordinates":[[[117.109674,-0.5095225],[117.1097473,-0.5095794],[117.1098156,-0.5094913],[117.1097422,-0.5094345],[117.109674,-0.5095225]]]}, "properties": {"osm_id": 358724697, "osm_type": "ways_poly", "status": null, "opening_hours": null, "access": null, "toilets_disposal": null, "toilets_handwashing": null, "operator": null, "operator_type": null, "health_facility_bed": null, "staff_count_nurses": null, "health_facility_level": null, "medical_system_western": null, "staff_count_doctors": null, "health_facility_type": null}},{"type": "Feature", "geometry": {"type":"Polygon","coordinates":[[[117.1309463,-0.4929346],[117.1310751,-0.4929547],[117.13109,-0.4928592],[117.1309613,-0.4928391],[117.1309463,-0.4929346]]]}, "properties": {"osm_id": 577335425, "osm_type": "ways_poly", "status": null, "opening_hours": null, "access": null, "toilets_disposal": null, "toilets_handwashing": null, "operator": null, "operator_type": null, "health_facility_bed": null, "staff_count_nurses": null, "health_facility_level": null, "medical_system_western": null, "staff_count_doctors": null, "health_facility_type": null}},{"type": "Feature", "geometry": {"type":"Polygon","coordinates":[[[117.1250689,-0.4979527],[117.1251419,-0.4979877],[117.1251198,-0.4980338],[117.1252107,-0.4980774],[117.1252329,-0.4980312],[117.1252339,-0.4980316],[117.125277,-0.4979417],[117.125112,-0.4978626],[117.1250689,-0.4979527]]]}, "properties": {"osm_id": 359079755, "osm_type": "ways_poly", "status": null, "opening_hours": null, "access": null, "toilets_disposal": null, "toilets_handwashing": null, "operator": null, "operator_type": null, "health_facility_bed": null, "staff_count_nurses": null, "health_facility_level": null, "medical_system_western": null, "staff_count_doctors": null, "health_facility_type": null}},{"type": "Feature", "geometry": {"type":"Polygon","coordinates":[[[117.1505669,-0.398057],[117.1507101,-0.3981023],[117.1507252,-0.3980547],[117.150582,-0.3980093],[117.1505669,-0.398057]]]}, "properties": {"osm_id": 361649898, "osm_type": "ways_poly", "status": null, "opening_hours": null, "access": null, "toilets_disposal": null, "toilets_handwashing": null, "operator": null, "operator_type": null, "health_facility_bed": null, "staff_count_nurses": null, "health_facility_level": null, "medical_system_western": null, "staff_count_doctors": null, "health_facility_type": null}},{"type": "Feature", "geometry": {"type":"Polygon","coordinates":[[[117.1612072,-0.4939574],[117.1612077,-0.4940812],[117.1613639,-0.4940805],[117.1613634,-0.4939567],[117.1612072,-0.4939574]]]}, "properties": {"osm_id": 573196695, "osm_type": "ways_poly", "status": null, "opening_hours": null, "access": null, "toilets_disposal": null, "toilets_handwashing": null, "operator": null, "operator_type": null, "health_facility_bed": null, "staff_count_nurses": null, "health_facility_level": null, "medical_system_western": null, "staff_count_doctors": null, "health_facility_type": null}},{"type": "Feature", "geometry": {"type":"Polygon","coordinates":[[[117.1648699,-0.492943],[117.1648704,-0.492996],[117.1649992,-0.4929947],[117.1649986,-0.4929416],[117.1648699,-0.492943]]]}, "properties": {"osm_id": 574798546, "osm_type": "ways_poly", "status": null, "opening_hours": null, "access": null, "toilets_disposal": null, "toilets_handwashing": null, "operator": null, "operator_type": null, "health_facility_bed": null, "staff_count_nurses": null, "health_facility_level": null, "medical_system_western": null, "staff_count_doctors": null, "health_facility_type": null}},{"type": "Feature", "geometry": {"type":"Polygon","coordinates":[[[117.1426525,-0.5015755],[117.1429338,-0.5016628],[117.1430524,-0.5011042],[117.1428053,-0.50106],[117.1426525,-0.5015755]]]}, "properties": {"osm_id": 354214034, "osm_type": "ways_poly", "status": null, "opening_hours": null, "access": null, "toilets_disposal": null, "toilets_handwashing": null, "operator": null, "operator_type": "private", "health_facility_bed": null, "staff_count_nurses": null, "health_facility_level": null, "medical_system_western": null, "staff_count_doctors": null, "health_facility_type": null}},{"type": "Feature", "geometry": {"type":"Polygon","coordinates":[[[117.1425088,-0.4988799],[117.1425732,-0.4988799],[117.1425732,-0.4988182],[117.1425088,-0.4988182],[117.1425088,-0.4988799]]]}, "properties": {"osm_id": 575985455, "osm_type": "ways_poly", "status": null, "opening_hours": null, "access": null, "toilets_disposal": null, "toilets_handwashing": null, "operator": null, "operator_type": null, "health_facility_bed": null, "staff_count_nurses": null, "health_facility_level": null, "medical_system_western": null, "staff_count_doctors": null, "health_facility_type": null}},{"type": "Feature", "geometry": {"type":"Polygon","coordinates":[[[117.1368775,-0.4966589],[117.1371343,-0.4967331],[117.1372212,-0.4964328],[117.1370535,-0.4963843],[117.1370155,-0.4965155],[117.1369264,-0.4964898],[117.1368775,-0.4966589]]]}, "properties": {"osm_id": 783003606, "osm_type": "ways_poly", "status": null, "opening_hours": null, "access": null, "toilets_disposal": null, "toilets_handwashing": null, "operator": null, "operator_type": null, "health_facility_bed": null, "staff_count_nurses": null, "health_facility_level": null, "medical_system_western": null, "staff_count_doctors": null, "health_facility_type": null}},{"type": "Feature", "geometry": {"type":"Polygon","coordinates":[[[117.1370982,-0.4968254],[117.1371735,-0.4968583],[117.1371035,-0.4971264],[117.1373049,-0.497179],[117.1373853,-0.4968705],[117.1371094,-0.4967938],[117.1370982,-0.4968254]]]}, "properties": {"osm_id": 784433493, "osm_type": "ways_poly", "status": null, "opening_hours": null, "access": null, "toilets_disposal": null, "toilets_handwashing": null, "operator": null, "operator_type": null, "health_facility_bed": null, "staff_count_nurses": null, "health_facility_level": null, "medical_system_western": null, "staff_count_doctors": null, "health_facility_type": null}},{"type": "Feature", "geometry": {"type":"Polygon","coordinates":[[[117.1657205,-0.4726014],[117.1657841,-0.4727165],[117.1658266,-0.472693],[117.165763,-0.4725779],[117.1657205,-0.4726014]]]}, "properties": {"osm_id": 357116115, "osm_type": "ways_poly", "status": null, "opening_hours": null, "access": null, "toilets_disposal": null, "toilets_handwashing": null, "operator": null, "operator_type": null, "health_facility_bed": null, "staff_count_nurses": null, "health_facility_level": null, "medical_system_western": null, "staff_count_doctors": null, "health_facility_type": null}},{"type": "Feature", "geometry": {"type":"Polygon","coordinates":[[[117.1831058,-0.4620224],[117.1831889,-0.462468],[117.1833707,-0.4624899],[117.1832815,-0.462032],[117.1831058,-0.4620224]]]}, "properties": {"osm_id": 355652957, "osm_type": "ways_poly", "status": null, "opening_hours": null, "access": null, "toilets_disposal": null, "toilets_handwashing": null, "operator": null, "operator_type": "private", "health_facility_bed": null, "staff_count_nurses": null, "health_facility_level": null, "medical_system_western": null, "staff_count_doctors": null, "health_facility_type": null}},{"type": "Feature", "geometry": {"type":"Polygon","coordinates":[[[117.15176,-0.4918579],[117.1519312,-0.4919656],[117.151981,-0.4918865],[117.1518098,-0.4917788],[117.15176,-0.4918579]]]}, "properties": {"osm_id": 362527029, "osm_type": "ways_poly", "status": null, "opening_hours": null, "access": null, "toilets_disposal": null, "toilets_handwashing": null, "operator": null, "operator_type": null, "health_facility_bed": null, "staff_count_nurses": null, "health_facility_level": null, "medical_system_western": null, "staff_count_doctors": null, "health_facility_type": null}},{"type": "Feature", "geometry": {"type":"Polygon","coordinates":[[[117.1484241,-0.4895619],[117.1484726,-0.4896478],[117.148675,-0.4895334],[117.1486379,-0.4894677],[117.1485759,-0.4895027],[117.1485645,-0.4894826],[117.1484241,-0.4895619]]]}, "properties": {"osm_id": 308996109, "osm_type": "ways_poly", "status": null, "opening_hours": null, "access": null, "toilets_disposal": null, "toilets_handwashing": null, "operator": null, "operator_type": null, "health_facility_bed": null, "staff_count_nurses": null, "health_facility_level": null, "medical_system_western": null, "staff_count_doctors": null, "health_facility_type": null}},{"type": "Feature", "geometry": {"type":"Polygon","coordinates":[[[117.1581137,-0.4905293],[117.1581354,-0.4905761],[117.158183,-0.4905539],[117.1581613,-0.4905072],[117.1581137,-0.4905293]]]}, "properties": {"osm_id": 575581625, "osm_type": "ways_poly", "status": null, "opening_hours": null, "access": null, "toilets_disposal": null, "toilets_handwashing": null, "operator": null, "operator_type": null, "health_facility_bed": null, "staff_count_nurses": null, "health_facility_level": null, "medical_system_western": null, "staff_count_doctors": null, "health_facility_type": null}},{"type": "Feature", "geometry": {"type":"Polygon","coordinates":[[[117.1671168,-0.4869767],[117.167173,-0.4870664],[117.1672789,-0.487],[117.1672227,-0.4869103],[117.1671168,-0.4869767]]]}, "properties": {"osm_id": 574573241, "osm_type": "ways_poly", "status": null, "opening_hours": null, "access": null, "toilets_disposal": null, "toilets_handwashing": null, "operator": null, "operator_type": null, "health_facility_bed": null, "staff_count_nurses": null, "health_facility_level": null, "medical_system_western": null, "staff_count_doctors": null, "health_facility_type": null}},{"type": "Feature", "geometry": {"type":"Polygon","coordinates":[[[117.1374371,-0.4954834],[117.1376107,-0.4955464],[117.1376865,-0.4953374],[117.1375129,-0.4952745],[117.1374371,-0.4954834]]]}, "properties": {"osm_id": 358375825, "osm_type": "ways_poly", "status": null, "opening_hours": null, "access": null, "toilets_disposal": null, "toilets_handwashing": null, "operator": null, "operator_type": null, "health_facility_bed": null, "staff_count_nurses": null, "health_facility_level": null, "medical_system_western": null, "staff_count_doctors": null, "health_facility_type": null}},{"type": "Feature", "geometry": {"type":"Polygon","coordinates":[[[117.0859077,-0.4934911],[117.0863797,-0.4937459],[117.0867311,-0.4930083],[117.0862322,-0.4927777],[117.0859077,-0.4934911]]]}, "properties": {"osm_id": 1352462137, "osm_type": "ways_poly", "status": null, "opening_hours": null, "access": null, "toilets_disposal": null, "toilets_handwashing": null, "operator": null, "operator_type": null, "health_facility_bed": null, "staff_count_nurses": null, "health_facility_level": null, "medical_system_western": null, "staff_count_doctors": null, "health_facility_type": null}},{"type": "Feature", "geometry": {"type":"Polygon","coordinates":[[[117.1304427,-0.4972536],[117.1306196,-0.497305],[117.1306467,-0.4972116],[117.1304698,-0.4971602],[117.1304427,-0.4972536]]]}, "properties": {"osm_id": 358375826, "osm_type": "ways_poly", "status": null, "opening_hours": null, "access": null, "toilets_disposal": null, "toilets_handwashing": null, "operator": null, "operator_type": null, "health_facility_bed": null, "staff_count_nurses": null, "health_facility_level": null, "medical_system_western": null, "staff_count_doctors": null, "health_facility_type": null}},{"type": "Feature", "geometry": {"type":"Polygon","coordinates":[[[117.136656,-0.4973504],[117.1367791,-0.4973867],[117.1368673,-0.4970876],[117.1367442,-0.4970513],[117.136656,-0.4973504]]]}, "properties": {"osm_id": 577330622, "osm_type": "ways_poly", "status": null, "opening_hours": null, "access": null, "toilets_disposal": null, "toilets_handwashing": null, "operator": null, "operator_type": null, "health_facility_bed": null, "staff_count_nurses": null, "health_facility_level": null, "medical_system_western": null, "staff_count_doctors": null, "health_facility_type": null}},{"type": "Feature", "geometry": {"type":"Polygon","coordinates":[[[117.1358862,-0.4981217],[117.1363273,-0.4982488],[117.1363078,-0.4984416],[117.1362525,-0.4987448],[117.1369166,-0.4989168],[117.1369825,-0.498692],[117.1370716,-0.4987194],[117.1371033,-0.4986029],[117.1372229,-0.4986338],[117.1375369,-0.4973769],[117.137383,-0.4973316],[117.1374204,-0.4971443],[117.1379232,-0.4972314],[117.1379908,-0.4965889],[117.1379892,-0.4965321],[117.1379603,-0.4964951],[117.1371008,-0.4961307],[117.1362206,-0.4974376],[117.1358862,-0.4981217]]]}, "properties": {"osm_id": 304084975, "osm_type": "ways_poly", "status": null, "opening_hours": null, "access": null, "toilets_disposal": null, "toilets_handwashing": null, "operator": null, "operator_type": "private", "health_facility_bed": null, "staff_count_nurses": null, "health_facility_level": null, "medical_system_western": null, "staff_count_doctors": null, "health_facility_type": null}},{"type": "Feature", "geometry": {"type":"Polygon","coordinates":[[[117.1564021,-0.4626868],[117.1565764,-0.4627766],[117.15664,-0.4626533],[117.1564657,-0.4625634],[117.1564021,-0.4626868]]]}, "properties": {"osm_id": 577622487, "osm_type": "ways_poly", "status": null, "opening_hours": null, "access": null, "toilets_disposal": null, "toilets_handwashing": null, "operator": null, "operator_type": null, "health_facility_bed": null, "staff_count_nurses": null, "health_facility_level": null, "medical_system_western": null, "staff_count_doctors": null, "health_facility_type": null}},{"type": "Feature", "geometry": {"type":"Polygon","coordinates":[[[117.1545947,-0.486736],[117.1546896,-0.4867941],[117.15473,-0.486728],[117.1546352,-0.48667],[117.1545947,-0.486736]]]}, "properties": {"osm_id": 359296869, "osm_type": "ways_poly", "status": null, "opening_hours": null, "access": null, "toilets_disposal": null, "toilets_handwashing": null, "operator": null, "operator_type": null, "health_facility_bed": null, "staff_count_nurses": null, "health_facility_level": null, "medical_system_western": null, "staff_count_doctors": null, "health_facility_type": null}},{"type": "Feature", "geometry": {"type":"Polygon","coordinates":[[[117.1787682,-0.4784143],[117.1789277,-0.4784537],[117.1789536,-0.4783468],[117.1787961,-0.4783049],[117.1787682,-0.4784143]]]}, "properties": {"osm_id": 577506425, "osm_type": "ways_poly", "status": null, "opening_hours": null, "access": null, "toilets_disposal": null, "toilets_handwashing": null, "operator": null, "operator_type": null, "health_facility_bed": null, "staff_count_nurses": null, "health_facility_level": null, "medical_system_western": null, "staff_count_doctors": null, "health_facility_type": null}},{"type": "Feature", "geometry": {"type":"Polygon","coordinates":[[[117.1585342,-0.5012764],[117.1587996,-0.5013372],[117.1588135,-0.5012766],[117.1585481,-0.5012158],[117.1585342,-0.5012764]]]}, "properties": {"osm_id": 362191586, "osm_type": "ways_poly", "status": null, "opening_hours": null, "access": null, "toilets_disposal": null, "toilets_handwashing": null, "operator": null, "operator_type": null, "health_facility_bed": null, "staff_count_nurses": null, "health_facility_level": null, "medical_system_western": null, "staff_count_doctors": null, "health_facility_type": null}},{"type": "Feature", "geometry": {"type":"Polygon","coordinates":[[[117.1908708,-0.5498942],[117.1909751,-0.5500088],[117.1910319,-0.5499571],[117.1909277,-0.5498424],[117.1908708,-0.5498942]]]}, "properties": {"osm_id": 359691041, "osm_type": "ways_poly", "status": null, "opening_hours": null, "access": null, "toilets_disposal": null, "toilets_handwashing": null, "operator": null, "operator_type": null, "health_facility_bed": null, "staff_count_nurses": null, "health_facility_level": null, "medical_system_western": null, "staff_count_doctors": null, "health_facility_type": null}},{"type": "Feature", "geometry": {"type":"Polygon","coordinates":[[[117.190286,-0.5499753],[117.1903657,-0.5500108],[117.1903876,-0.5499614],[117.1903079,-0.549926],[117.190286,-0.5499753]]]}, "properties": {"osm_id": 359691039, "osm_type": "ways_poly", "status": null, "opening_hours": null, "access": null, "toilets_disposal": null, "toilets_handwashing": null, "operator": null, "operator_type": null, "health_facility_bed": null, "staff_count_nurses": null, "health_facility_level": null, "medical_system_western": null, "staff_count_doctors": null, "health_facility_type": null}},{"type": "Feature", "geometry": {"type":"Polygon","coordinates":[[[117.1683157,-0.5304096],[117.1684083,-0.5305199],[117.1684722,-0.5304662],[117.1683796,-0.5303559],[117.1683157,-0.5304096]]]}, "properties": {"osm_id": 359679498, "osm_type": "ways_poly", "status": null, "opening_hours": null, "access": null, "toilets_disposal": null, "toilets_handwashing": null, "operator": null, "operator_type": null, "health_facility_bed": null, "staff_count_nurses": null, "health_facility_level": null, "medical_system_western": null, "staff_count_doctors": null, "health_facility_type": null}}]}